CCSDS_OMM_VERS = 2.0
CREATION_DATE  = 
ORIGINATOR     = 

OBJECT_NAME    = STARLINK-36391
OBJECT_ID      = 2026-018C
CENTER_NAME    = EARTH
REF_FRAME      = TEME
TIME_SYSTEM    = UTC
MEAN_ELEMENT_THEORY = SGP/SGP4

EPOCH          = 2026-02-16T18:26:16.099296
MEAN_MOTION    = 15.80895434
ECCENTRICITY   = .0000752
INCLINATION    = 97.2838
RA_OF_ASC_NODE = 112.5336
ARG_OF_PERICENTER = 73.9656
MEAN_ANOMALY   = 286.1695

EPHEMERIS_TYPE = 0
CLASSIFICATION_TYPE = U
NORAD_CAT_ID   = 67591
ELEMENT_SET_NO = 999
REV_AT_EPOCH   = 401
BSTAR          = .87125E-3
MEAN_MOTION_DOT = .170665E-2
MEAN_MOTION_DDOT = 0

CCSDS_OMM_VERS = 2.0
CREATION_DATE  = 
ORIGINATOR     = 

OBJECT_NAME    = STARLINK-36603
OBJECT_ID      = 2026-018D
CENTER_NAME    = EARTH
REF_FRAME      = TEME
TIME_SYSTEM    = UTC
MEAN_ELEMENT_THEORY = SGP/SGP4

EPOCH          = 2026-02-16T18:25:11.961120
MEAN_MOTION    = 15.80902436
ECCENTRICITY   = .0001018
INCLINATION    = 97.2834
RA_OF_ASC_NODE = 112.5342
ARG_OF_PERICENTER = 72.5778
MEAN_ANOMALY   = 287.5601

EPHEMERIS_TYPE = 0
CLASSIFICATION_TYPE = U
NORAD_CAT_ID   = 67592
ELEMENT_SET_NO = 999
REV_AT_EPOCH   = 401
BSTAR          = .9655E-3
MEAN_MOTION_DOT = .189617E-2
MEAN_MOTION_DDOT = 0

CCSDS_OMM_VERS = 2.0
CREATION_DATE  = 
ORIGINATOR     = 

OBJECT_NAME    = STARLINK-36634
OBJECT_ID      = 2026-018E
CENTER_NAME    = EARTH
REF_FRAME      = TEME
TIME_SYSTEM    = UTC
MEAN_ELEMENT_THEORY = SGP/SGP4

EPOCH          = 2026-02-16T19:54:41.361696
MEAN_MOTION    = 15.80911575
ECCENTRICITY   = .0000952
INCLINATION    = 97.2836
RA_OF_ASC_NODE = 112.6030
ARG_OF_PERICENTER = 78.1779
MEAN_ANOMALY   = 281.9596

EPHEMERIS_TYPE = 0
CLASSIFICATION_TYPE = U
NORAD_CAT_ID   = 67593
ELEMENT_SET_NO = 999
REV_AT_EPOCH   = 402
BSTAR          = .86867E-3
MEAN_MOTION_DOT = .170277E-2
MEAN_MOTION_DDOT = 0

CCSDS_OMM_VERS = 2.0
CREATION_DATE  = 
ORIGINATOR     = 

OBJECT_NAME    = STARLINK-36638
OBJECT_ID      = 2026-018F
CENTER_NAME    = EARTH
REF_FRAME      = TEME
TIME_SYSTEM    = UTC
MEAN_ELEMENT_THEORY = SGP/SGP4

EPOCH          = 2026-02-16T18:21:56.786112
MEAN_MOTION    = 15.80904286
ECCENTRICITY   = .0001466
INCLINATION    = 97.2835
RA_OF_ASC_NODE = 112.5374
ARG_OF_PERICENTER = 68.2356
MEAN_ANOMALY   = 291.9068

EPHEMERIS_TYPE = 0
CLASSIFICATION_TYPE = U
NORAD_CAT_ID   = 67594
ELEMENT_SET_NO = 999
REV_AT_EPOCH   = 401
BSTAR          = .10407E-2
MEAN_MOTION_DOT = .204783E-2
MEAN_MOTION_DDOT = 0

CCSDS_OMM_VERS = 2.0
CREATION_DATE  = 
ORIGINATOR     = 

OBJECT_NAME    = STARLINK-36628
OBJECT_ID      = 2026-018G
CENTER_NAME    = EARTH
REF_FRAME      = TEME
TIME_SYSTEM    = UTC
MEAN_ELEMENT_THEORY = SGP/SGP4

EPOCH          = 2026-02-16T20:00:04.000032
MEAN_MOTION    = 15.75265954
ECCENTRICITY   = .0001064
INCLINATION    = 97.2844
RA_OF_ASC_NODE = 112.5944
ARG_OF_PERICENTER = 75.6603
MEAN_ANOMALY   = 277.1095

EPHEMERIS_TYPE = 0
CLASSIFICATION_TYPE = U
NORAD_CAT_ID   = 67595
ELEMENT_SET_NO = 999
REV_AT_EPOCH   = 399
BSTAR          = -.1168E-2
MEAN_MOTION_DOT = -.171449E-2
MEAN_MOTION_DDOT = 0

CCSDS_OMM_VERS = 2.0
CREATION_DATE  = 
ORIGINATOR     = 

OBJECT_NAME    = STARLINK-36629
OBJECT_ID      = 2026-018H
CENTER_NAME    = EARTH
REF_FRAME      = TEME
TIME_SYSTEM    = UTC
MEAN_ELEMENT_THEORY = SGP/SGP4

EPOCH          = 2026-02-16T18:41:38.146272
MEAN_MOTION    = 15.75234072
ECCENTRICITY   = .0001607
INCLINATION    = 97.2841
RA_OF_ASC_NODE = 112.5168
ARG_OF_PERICENTER = 66.8085
MEAN_ANOMALY   = 293.3350

EPHEMERIS_TYPE = 0
CLASSIFICATION_TYPE = U
NORAD_CAT_ID   = 67596
ELEMENT_SET_NO = 999
REV_AT_EPOCH   = 401
BSTAR          = .88347E-3
MEAN_MOTION_DOT = .133989E-2
MEAN_MOTION_DDOT = 0

CCSDS_OMM_VERS = 2.0
CREATION_DATE  = 
ORIGINATOR     = 

OBJECT_NAME    = STARLINK-36384
OBJECT_ID      = 2026-018J
CENTER_NAME    = EARTH
REF_FRAME      = TEME
TIME_SYSTEM    = UTC
MEAN_ELEMENT_THEORY = SGP/SGP4

EPOCH          = 2026-02-16T18:17:42.179136
MEAN_MOTION    = 15.80902410
ECCENTRICITY   = .0001556
INCLINATION    = 97.2829
RA_OF_ASC_NODE = 112.5399
ARG_OF_PERICENTER = 76.3044
MEAN_ANOMALY   = 283.8397

EPHEMERIS_TYPE = 0
CLASSIFICATION_TYPE = U
NORAD_CAT_ID   = 67597
ELEMENT_SET_NO = 999
REV_AT_EPOCH   = 401
BSTAR          = .11036E-2
MEAN_MOTION_DOT = .217462E-2
MEAN_MOTION_DDOT = 0

CCSDS_OMM_VERS = 2.0
CREATION_DATE  = 
ORIGINATOR     = 

OBJECT_NAME    = STARLINK-36358
OBJECT_ID      = 2026-018K
CENTER_NAME    = EARTH
REF_FRAME      = TEME
TIME_SYSTEM    = UTC
MEAN_ELEMENT_THEORY = SGP/SGP4

EPOCH          = 2026-02-16T20:00:04.000032
MEAN_MOTION    = 15.75257922
ECCENTRICITY   = .0001691
INCLINATION    = 97.2847
RA_OF_ASC_NODE = 112.5893
ARG_OF_PERICENTER = 65.2284
MEAN_ANOMALY   = 277.5455

EPHEMERIS_TYPE = 0
CLASSIFICATION_TYPE = U
NORAD_CAT_ID   = 67598
ELEMENT_SET_NO = 999
REV_AT_EPOCH   = 404
BSTAR          = -.12382E-2
MEAN_MOTION_DOT = -.1815E-2
MEAN_MOTION_DDOT = 0

CCSDS_OMM_VERS = 2.0
CREATION_DATE  = 
ORIGINATOR     = 

OBJECT_NAME    = STARLINK-36582
OBJECT_ID      = 2026-018L
CENTER_NAME    = EARTH
REF_FRAME      = TEME
TIME_SYSTEM    = UTC
MEAN_ELEMENT_THEORY = SGP/SGP4

EPOCH          = 2026-02-16T18:14:53.414016
MEAN_MOTION    = 15.80921029
ECCENTRICITY   = .0001408
INCLINATION    = 97.2831
RA_OF_ASC_NODE = 112.5428
ARG_OF_PERICENTER = 47.6708
MEAN_ANOMALY   = 312.4679

EPHEMERIS_TYPE = 0
CLASSIFICATION_TYPE = U
NORAD_CAT_ID   = 67599
ELEMENT_SET_NO = 999
REV_AT_EPOCH   = 406
BSTAR          = .11688E-2
MEAN_MOTION_DOT = .230861E-2
MEAN_MOTION_DDOT = 0

CCSDS_OMM_VERS = 2.0
CREATION_DATE  = 
ORIGINATOR     = 

OBJECT_NAME    = STARLINK-36640
OBJECT_ID      = 2026-018M
CENTER_NAME    = EARTH
REF_FRAME      = TEME
TIME_SYSTEM    = UTC
MEAN_ELEMENT_THEORY = SGP/SGP4

EPOCH          = 2026-02-16T18:38:35.080224
MEAN_MOTION    = 15.75240038
ECCENTRICITY   = .0001381
INCLINATION    = 97.2843
RA_OF_ASC_NODE = 112.5199
ARG_OF_PERICENTER = 90.6909
MEAN_ANOMALY   = 269.4514

EPHEMERIS_TYPE = 0
CLASSIFICATION_TYPE = U
NORAD_CAT_ID   = 67600
ELEMENT_SET_NO = 999
REV_AT_EPOCH   = 401
BSTAR          = .71116E-3
MEAN_MOTION_DOT = .107522E-2
MEAN_MOTION_DDOT = 0

CCSDS_OMM_VERS = 2.0
CREATION_DATE  = 
ORIGINATOR     = 

OBJECT_NAME    = STARLINK-36635
OBJECT_ID      = 2026-018N
CENTER_NAME    = EARTH
REF_FRAME      = TEME
TIME_SYSTEM    = UTC
MEAN_ELEMENT_THEORY = SGP/SGP4

EPOCH          = 2026-02-16T19:44:45.926592
MEAN_MOTION    = 15.80897750
ECCENTRICITY   = .0001448
INCLINATION    = 97.2833
RA_OF_ASC_NODE = 112.6107
ARG_OF_PERICENTER = 73.2079
MEAN_ANOMALY   = 286.9348

EPHEMERIS_TYPE = 0
CLASSIFICATION_TYPE = U
NORAD_CAT_ID   = 67601
ELEMENT_SET_NO = 999
REV_AT_EPOCH   = 402
BSTAR          = .9228E-3
MEAN_MOTION_DOT = .181008E-2
MEAN_MOTION_DDOT = 0

CCSDS_OMM_VERS = 2.0
CREATION_DATE  = 
ORIGINATOR     = 

OBJECT_NAME    = STARLINK-36631
OBJECT_ID      = 2026-018P
CENTER_NAME    = EARTH
REF_FRAME      = TEME
TIME_SYSTEM    = UTC
MEAN_ELEMENT_THEORY = SGP/SGP4

EPOCH          = 2026-02-16T18:10:11.252352
MEAN_MOTION    = 15.80905030
ECCENTRICITY   = .0001283
INCLINATION    = 97.2834
RA_OF_ASC_NODE = 112.5468
ARG_OF_PERICENTER = 60.6390
MEAN_ANOMALY   = 299.5006

EPHEMERIS_TYPE = 0
CLASSIFICATION_TYPE = U
NORAD_CAT_ID   = 67602
ELEMENT_SET_NO = 999
REV_AT_EPOCH   = 401
BSTAR          = .10093E-2
MEAN_MOTION_DOT = .198455E-2
MEAN_MOTION_DDOT = 0

