STARLINK-36391          
1 67591U 26018C   26047.76824189  .00170665  00000+0  87125-3 0  9999
2 67591  97.2838 112.5336 0000752  73.9656 286.1695 15.80895434  4017
STARLINK-36603          
1 67592U 26018D   26047.76749955  .00189617  00000+0  96550-3 0  9996
2 67592  97.2834 112.5342 0001018  72.5778 287.5601 15.80902436  4010
STARLINK-36634          
1 67593U 26018E   26047.82964539  .00170277  00000+0  86867-3 0  9993
2 67593  97.2836 112.6030 0000952  78.1779 281.9596 15.80911575  4023
STARLINK-36638          
1 67594U 26018F   26047.76524058  .00204783  00000+0  10407-2 0  9991
2 67594  97.2835 112.5374 0001466  68.2356 291.9068 15.80904286  4010
STARLINK-36628          
1 67595U 26018G   26047.83337963 -.00171449  00000+0 -11680-2 0  9995
2 67595  97.2844 112.5944 0001064  75.6603 277.1095 15.75265954  3993
STARLINK-36629          
1 67596U 26018H   26047.77891373  .00133989  00000+0  88347-3 0  9999
2 67596  97.2841 112.5168 0001607  66.8085 293.3350 15.75234072  4013
STARLINK-36384          
1 67597U 26018J   26047.76229374  .00217462  00000+0  11036-2 0  9994
2 67597  97.2829 112.5399 0001556  76.3044 283.8397 15.80902410  4019
STARLINK-36358          
1 67598U 26018K   26047.83337963 -.00181500  00000+0 -12382-2 0  9997
2 67598  97.2847 112.5893 0001691  65.2284 277.5455 15.75257922  4045
STARLINK-36582          
1 67599U 26018L   26047.76034044  .00230861  00000+0  11688-2 0  9995
2 67599  97.2831 112.5428 0001408  47.6708 312.4679 15.80921029  4065
STARLINK-36640          
1 67600U 26018M   26047.77679491  .00107522  00000+0  71116-3 0  9990
2 67600  97.2843 112.5199 0001381  90.6909 269.4514 15.75240038  4019
STARLINK-36635          
1 67601U 26018N   26047.82275378  .00181008  00000+0  92280-3 0  9999
2 67601  97.2833 112.6107 0001448  73.2079 286.9348 15.80897750  4023
STARLINK-36631          
1 67602U 26018P   26047.75707468  .00198455  00000+0  10093-2 0  9997
2 67602  97.2834 112.5468 0001283  60.6390 299.5006 15.80905030  4018
